#dP2022  8 21 12  0  0.00000000      96 __u+U ITR00 EXT  IAC
## 2224  43200.00000000   900.00000000 59812 0.5000000000000
+  117   C06C07C08C09C10C11C12C13C14C16C19C20C21C22C23C24C25
+        C26C27C28C29C30C32C33C34C35C36C37C38C39C40C41C42C43
+        C44C45C46E01E02E03E04E05E07E08E09E10E11E12E13E14E15
+        E18E19E21E24E25E26E27E30E31E33E34E36G01G02G03G04G05
+        G06G07G08G09G10G11G12G13G14G15G16G17G18G19G20G21G22
+        G23G24G25G26G27G28G29G30G31G32J02J03R01R02R03R04R05
+        R07R08R09R11R12R13R14R15R17R18R19R20R21R24R25  0  0
++         9  9  8  9  9  8  9  8  9  9  8  8  9  7  9  7  8
++         7  9 10  7  9  9  7  7  9  9  9 10  9  9  7  8  8
++         9  9  8  7  7  9  8  8  8  7  8  8  9  8  8  7  7
++         7  7  9  8  7  8  7  7  7  7  7  7  7  6  8  8  8
++         8  8  8  8  8  7  7  8  6  8  8  8  7  7  7  8  7
++         7  6  6  8  7  7  7  8  7  7  8  9  8  8  9  8  8
++         9  7  9  8  7  7  9  9  8  8  9 10  9  9 10  0  0
%c M  cc GPS ccc cccc cccc cccc cccc ccccc ccccc ccccc ccccc
%c cc cc ccc ccc cccc cccc cccc cccc ccccc ccccc ccccc ccccc
%f  0.0000000  0.000000000  0.00000000000  0.000000000000000
%f  0.0000000  0.000000000  0.00000000000  0.000000000000000
%i    0    0    0    0      0      0      0      0         0
%i    0    0    0    0      0      0      0      0         0
/* IAC                                ULTRA-RAPID PREDICTION
/* S/V CLOCKS ARE ALIGNED TO GNSS TIME                      
/* G:C1WC2W R:C1PC2P E:C1XC5X C:C2IC6I J:C1CC2S             
/* PCV:IGS14_2218 OL/AL:FES2004  NONE     YN ORB:CoN CLK:CoN
*  2022 08 22  9 30  0.00000000
PC06  -1803.722513  34511.906073  24324.329659    666.357426
PC07 -13830.792402  26185.325778 -30015.417574    -36.583765
PC08 -16603.901634  37702.966244   8484.580930    448.909237
PC09   3979.696013  38483.019051  17734.297974   -887.371985
PC10  -6158.000732  26923.271870 -31636.889455    105.820117
PC11  19606.441941  13665.887871  14436.055849   -454.537650
PC12  13493.928261  24283.486428  -2462.639554   -543.068665
PC13 -10944.900815  38011.863916  14311.337029     59.565574
PC14  26135.792153   4340.429272   8685.296587    605.501365
PC16  -4108.176908  32402.802645  26996.080245    141.768629
PC19 -27824.449558   2194.445932    641.858523   -484.499650
PC20 -21569.878889  -9088.761000 -15212.055551    216.985492
PC21   1778.811279  15699.264854  23010.970693   -237.331541
PC22 -18326.115531  12670.264956  16814.530062   -284.119829
PC23  16060.340815 -21960.630310  -6199.714804   -969.668634
PC24  10054.401983  14574.381484 -21565.022941   -969.708208
PC25  18744.985219  -6856.262968 -19513.910558   -689.316258
PC26  -2661.531707  25195.774570 -11667.072123    691.643026
PC27  -7154.683717 -24775.805936  10634.279772      9.134301
PC28   7790.188121 -15702.442644  21717.186430      4.144283
PC29 -19051.564430  -2756.661329 -20213.285878      3.209748
PC30 -18842.107528 -19668.977896  -6044.177965    502.337445
PC32  -1840.414099 -15695.343066 -22992.155118   -794.295435
PC33  27798.815207  -2277.861472   -520.326813   -471.792746
PC34  19178.593256  19018.266968   7036.011537   -330.652273
PC35  -8331.365953  14960.181257 -22049.736058    423.775148
PC36 -18812.846487   5776.941406  19814.457454   -968.105894
PC37   4222.123466 -25473.212579  10632.929771   -938.081602
PC38 -20292.006041  36844.642320    352.308943     18.908992
PC39  -7048.808440  28550.925572  30304.525678     -0.282378
PC40 -19879.069135  19557.819144 -31695.348983     -2.744314
PC41  18733.289039 -12536.783585 -16404.641737     -8.515298
PC42  20656.411077   9738.315554  16060.767744   -158.522443
PC43  19361.390229   3543.039707  19777.279661     10.029957
PC44   7811.730997  24536.795933 -10799.874371     25.551098
PC45 -15892.116354  22147.649596   5931.510748    841.401712
PC46 -11050.713546 -13017.188678  22087.144487   -499.964096
PE01   7501.350075 -20844.432093  19640.724853   -539.538805
PE02  -7315.594439  20801.443662 -19735.974059    319.917333
PE03   4779.103760  19514.199314  21729.389492   -592.023426
PE04 -22354.228645 -17622.498570  -8120.968653  -1098.872792
PE05 -15974.417949   9968.960998  22840.834887   -151.198747
PE07  27109.779805   5218.930070 -10658.301491   -698.789489
PE08  22495.117740  17463.378066   8046.599819   -585.563053
PE09 -27124.394977  -5256.107741  10645.023360   -631.648552
PE10 -15039.692572 -13040.379292 -21924.229034   -471.553406
PE11 -16180.911274  -1018.152202 -24779.964966   2535.884863
PE12 -11626.734616 -22207.152147 -15744.477356   -128.281132
PE13  16115.108793   1906.693637  24752.153965    430.338555
PE14  18605.532536  -1190.936240  14205.144269  -1742.333042
PE15  11540.460339  22338.790863  15615.747080    725.303917
PE18 -24701.271608   3305.378402 -20883.300074  -1066.012957
PE19  -2024.764925 -18776.578202 -22788.576892  -4741.104278
PE21  22449.870769 -18662.917721   4889.640577   -753.267374
PE24 -25385.226946   4609.313261  14488.225344   -794.538875
PE25 -22622.051515  18527.322022  -4585.281087   -585.353784
PE26  10948.653986 -20243.648148  18617.625926  -1523.909871
PE27  25650.394031  -5633.265148 -13651.915935   -374.127264
PE30  12923.931717  11322.381156 -24105.142910   -774.656372
PE31 -13723.677324 -10603.974296  24001.610620   -502.115391
PE33   -184.796709 -29478.910418   2676.839791   -453.704130
PE34    341.401293  29483.857620  -2513.673201     -0.662370
PE36 -11201.604532  19457.247984 -19293.070364   -420.339590
PG01  13028.919022 -12996.383785  18707.633543    297.533303
PG02 -14827.819748  -1249.553909 -21374.758624   -648.420915
PG03  23460.747022 -12318.864474     35.558460   -336.889193
PG04  17815.048783  -4147.701423 -19287.537995   -129.644139
PG05 -23378.302278   3616.361700 -12390.917730    -93.806803
PG06  -6925.719017 -22584.202090 -12009.665897    434.209610
PG07   5876.733685 -24620.309313  -6735.334142    313.043544
PG08  22887.315077   2801.020595  13446.538707    -81.499557
PG09   7233.553498 -13579.680317 -21723.510932   -305.329663
PG10    301.806170  16114.686705  21199.646437   -536.863620
PG11 -12579.575944 -12634.664997 -19698.556380    -12.132352
PG12 -24572.409258   9809.188649   1300.082144   -266.218053
PG13 -22441.705944 -12301.938036   7289.756268    372.695046
PG14   2049.354943 -17017.459050  20268.224904   -108.108138
PG15 -23203.064928   -233.009586  12758.546649    -35.259505
PG16  20939.545953   3572.361359 -16498.580637   -521.489253
PG17  -7354.887323 -19399.156221  16985.506031    651.126384
PG18  -5932.716399  24973.289040  -6564.964043     73.818379
PG19 -15856.375547 -19686.762862   8304.664935    200.493741
PG20 -15857.211158  -6419.871830 -20255.724083    492.744726
PG21  15343.463051  -2695.317946  22089.816755    160.269820
PG22  17464.900873  19089.815651   6814.777177    314.218144
PG23 -10611.421832  18428.963445  15825.167339    -37.674779
PG24 -14435.389080   8930.927306  20020.729231    160.669826
PG25 -17593.379863  17285.009864  -9774.190912    363.615446
PG26  13682.211271   9608.038894 -20783.140639    224.920891
PG27  23393.108894  12761.111652   2389.779556    217.947502
PG28  -7242.147126 -13547.132335  22166.519689    340.600025
PG29  -8408.438832  12200.277917 -22089.247924   -544.975591
PG30  -1242.335498 -26162.809472   3576.075048   -536.209767
PG31   8504.750219  20871.753573 -13810.749189   -190.568225
PG32  11233.004391  19186.112641  14821.238579   -210.924841
PJ02 -36226.987521  21079.586694   -242.442694     -3.575709
PJ03 -19424.865799  24720.372400 -23470.283828     -0.851236
PR01 -21158.188828   4417.772142  13552.957308     13.532474
PR02  -3260.834268  10494.300995  23055.421050    527.623486
PR03  15291.171081  10331.271823  17678.943260     62.299692
PR04  24981.467717   4481.854657   2638.992267    154.800552
PR05  21078.096622  -3740.541586 -13882.743659     98.341207
PR07 -15895.791397 -10152.888679 -17112.179546     39.770501
PR08 -25015.355908  -4272.411781  -2373.128980    -66.828908
PR09   9728.937183 -21548.416672   9495.668954     72.557126
PR11 -13648.952396   1380.801915  21523.673372     29.687257
PR12 -17410.687512  16692.069654   8312.993270     20.296704
PR13 -10881.549605  21584.038811  -8160.040624    -25.989448
PR14   2904.143477  13542.375361 -21406.339377     24.445522
PR15  14195.379458  -2072.780895 -21063.564884     94.090087
PR17  11184.423139  22621.992570   3546.539614    554.551715
PR18  13581.292722  11760.465156  18138.178789     38.716574
PR19   9589.396781  -3873.173398  23312.784426   -200.895127
PR20  -1161.942911 -21111.611947  14249.287221    -77.007903
PR21 -11590.274264 -22161.384592  -5120.308035   -327.579994
PR24   1893.766628  21514.338562 -13541.258468    110.291821
PR25 -13365.734971 -11517.791424 -18395.406412     12.366711
EOF
